[{"OBJECT_NAME":"NOVASAR 1","OBJECT_ID":"2018-071B","EPOCH":"2026-03-09T22:37:23.630304","MEAN_MOTION":14.96279869,"ECCENTRICITY":0.00025467,"INCLINATION":97.522,"RA_OF_ASC_NODE":305.2476,"ARG_OF_PERICENTER":88.2237,"MEAN_ANOMALY":271.9277,"EPHEMERIS_TYPE":0,"CLASSIFICATION_TYPE":"U","NORAD_CAT_ID":43619,"ELEMENT_SET_NO":999,"REV_AT_EPOCH":40809,"BSTAR":0.00014385278,"MEAN_MOTION_DOT":1.57e-5,"MEAN_MOTION_DDOT":0},{"OBJECT_NAME":"STARLINK-35890","OBJECT_ID":"2025-280Q","EPOCH":"2026-03-09T22:39:14.243904","MEAN_MOTION":14.983291,"ECCENTRICITY":0.00027531,"INCLINATION":70.0024,"RA_OF_ASC_NODE":333.8241,"ARG_OF_PERICENTER":264.1661,"MEAN_ANOMALY":95.9184,"EPHEMERIS_TYPE":0,"CLASSIFICATION_TYPE":"U","NORAD_CAT_ID":66835,"ELEMENT_SET_NO":999,"REV_AT_EPOCH":1611,"BSTAR":0.00028267663,"MEAN_MOTION_DOT":3.281e-5,"MEAN_MOTION_DDOT":0}]
